1 90000           19337.16666667 -.00000203  00000-0 -37176-3 0 00003
2 90000 053.8096 004.9139 0008063 268.9527 076.9689 13.39843537000016
1 90001           19337.16666667 -.00000179  00000-0 -32889-3 0 00002
2 90001 053.8096 004.9139 0008062 268.9548 084.1669 13.39843523000013
1 90002           19337.16666667 -.00000146  00000-0 -26763-3 0 00001
2 90002 053.8096 004.9139 0008061 268.9543 091.3674 13.39843497000014
1 90003           19337.16666667 -.00000105  00000-0 -19212-3 0 00008
2 90003 053.8096 004.9139 0008061 268.9519 098.5698 13.39843459000011
1 90004           19337.16666667 -.00000060  00000-0 -11042-3 0 00002
2 90004 053.8095 004.9139 0008061 268.9481 105.7736 13.39843417000017
1 90005           19337.16666667 -.00000014  00000-0 -26506-4 0 00004
2 90005 053.8095 004.9139 0008061 268.9440 112.9778 13.39843371000018
1 90006           19337.16666667  .00000029  00000-0  53888-4 0 00002
2 90006 053.8095 004.9139 0008061 268.9404 120.1814 13.39843323000018
1 90007           19337.16666667  .00000068  00000-0  12499-3 0 00008
2 90007 053.8095 004.9139 0008062 268.9384 127.3834 13.39843279000018
1 90008           19337.16666667  .00000099  00000-0  18155-3 0 00008
2 90008 053.8095 004.9138 0008062 268.9386 134.5833 13.39843240000017
1 90009           19337.16666667  .00000120  00000-0  21934-3 0 00003
2 90009 053.8095 004.9138 0008063 268.9413 141.7806 13.39843210000017
1 90010           19337.16666667  .00000128  00000-0  23546-3 0 00004
2 90010 053.8095 004.9138 0008064 268.9464 148.9756 13.39843191000017
1 90011           19337.16666667  .00000125  00000-0  22843-3 0 00001
2 90011 053.8095 004.9138 0008064 268.9534 156.1685 13.39843186000012
1 90012           19337.16666667  .00000108  00000-0  19823-3 0 00007
2 90012 053.8095 004.9138 0008064 268.9617 163.3603 13.39843193000013
1 90013           19337.16666667  .00000080  00000-0  14640-3 0 00009
2 90013 053.8095 004.9138 0008064 268.9701 170.5518 13.39843215000018
1 90014           19337.16666667  .00000041  00000-0  75891-4 0 00003
2 90014 053.8095 004.9138 0008063 268.9776 177.7443 13.39843250000015
1 90015           19337.16666667 -.00000005  00000-0 -90745-5 0 00002
2 90015 053.8096 004.9138 0008061 268.9830 184.9389 13.39843296000015
1 90016           19337.16666667 -.00000056  00000-0 -10335-3 0 00004
2 90016 053.8096 004.9138 0008060 268.9855 192.1364 13.39843351000018
1 90017           19337.16666667 -.00000110  00000-0 -20115-3 0 00003
2 90017 053.8096 004.9138 0008059 268.9847 199.3371 13.39843412000013
1 90018           19337.16666667 -.00000162  00000-0 -29635-3 0 00007
2 90018 053.8096 004.9138 0008057 268.9807 206.5410 13.39843475000012
1 90019           19337.16666667 -.00000209  00000-0 -38287-3 0 00003
2 90019 053.8096 004.9138 0008056 268.9739 213.7478 13.39843537000019
1 90020           19337.16666667 -.00000248  00000-0 -45515-3 0 00000
2 90020 053.8096 004.9138 0008055 268.9650 220.9567 13.39843594000014
1 90021           19337.16666667 -.00000277  00000-0 -50852-3 0 00003
2 90021 053.8096 004.9138 0008055 268.9550 228.1665 13.39843643000018
1 90022           19337.16666667 -.00000294  00000-0 -53936-3 0 00009
2 90022 053.8096 004.9138 0008055 268.9452 235.3763 13.39843680000010
1 90023           19337.16666667 -.00000297  00000-0 -54525-3 0 00008
2 90023 053.8096 004.9138 0008056 268.9368 242.5846 13.39843705000018
1 90024           19337.16666667 -.00000286  00000-0 -52515-3 0 00004
2 90024 053.8096 004.9139 0008057 268.9308 249.7907 13.39843714000012
1 90025           19337.16666667 -.00000262  00000-0 -47981-3 0 00000
2 90025 053.8096 004.9139 0008058 268.9277 256.9937 13.39843708000015
1 90026           19337.16666667 -.00000226  00000-0 -41403-3 0 00004
2 90026 053.8096 004.9139 0008059 268.9275 264.1939 13.39843689000016
1 90027           19337.16666667 -.00000179  00000-0 -32818-3 0 00002
2 90027 053.8096 004.9139 0008060 268.9307 271.3907 13.39843655000013
1 90028           19337.16666667 -.00000123  00000-0 -22611-3 0 00002
2 90028 053.8096 004.9139 0008061 268.9366 278.5849 13.39843607000011
1 90029           19337.16666667 -.00000065  00000-0 -11870-3 0 00003
2 90029 053.8095 004.9139 0008061 268.9438 285.7777 13.39843552000010
1 90030           19337.16666667 -.00000005  00000-0 -90134-5 0 00001
2 90030 053.8095 004.9139 0008061 268.9515 292.9700 13.39843492000017
1 90031           19337.16666667  .00000053  00000-0  96987-4 0 00004
2 90031 053.8095 004.9139 0008061 268.9585 300.1631 13.39843428000019
1 90032           19337.16666667  .00000105  00000-0  19319-3 0 00006
2 90032 053.8095 004.9139 0008060 268.9636 307.3580 13.39843365000018
1 90033           19337.16666667  .00000149  00000-0  27394-3 0 00007
2 90033 053.8095 004.9138 0008059 268.9659 314.5557 13.39843307000011
1 90034           19337.16666667  .00000183  00000-0  33463-3 0 00000
2 90034 053.8095 004.9138 0008057 268.9651 321.7566 13.39843256000015
1 90035           19337.16666667  .00000203  00000-0  37202-3 0 00009
2 90035 053.8095 004.9138 0008056 268.9610 328.9608 13.39843216000012
1 90036           19337.16666667  .00000210  00000-0  38431-3 0 00003
2 90036 053.8095 004.9138 0008055 268.9541 336.1678 13.39843189000012
1 90037           19337.16666667  .00000202  00000-0  37112-3 0 00000
2 90037 053.8095 004.9138 0008055 268.9450 343.3769 13.39843174000017
1 90038           19337.16666667  .00000182  00000-0  33355-3 0 00003
2 90038 053.8095 004.9138 0008055 268.9350 350.5870 13.39843174000010
1 90039           19337.16666667  .00000150  00000-0  27420-3 0 00005
2 90039 053.8095 004.9138 0008055 268.9251 357.7968 13.39843188000013
1 90040           19337.16666667  .00000107  00000-0  19705-3 0 00006
2 90040 053.8096 004.9138 0008056 268.9167 005.0052 13.39843214000010
1 90041           19337.16666667  .00000058  00000-0  10713-3 0 00002
2 90041 053.8096 004.9138 0008058 268.9108 012.2111 13.39843250000014
1 90042           19337.16666667  .00000006  00000-0  10245-4 0 00007
2 90042 053.8096 004.9138 0008059 268.9079 019.4140 13.39843294000012
1 90043           19337.16666667 -.00000048  00000-0 -87419-4 0 00003
2 90043 053.8096 004.9138 0008061 268.9083 026.6135 13.39843342000019
1 90044           19337.16666667 -.00000098  00000-0 -17971-3 0 00004
2 90044 053.8096 004.9138 0008062 268.9118 033.8100 13.39843391000016
1 90045           19337.16666667 -.00000142  00000-0 -26095-3 0 00002
2 90045 053.8096 004.9138 0008063 268.9179 041.0039 13.39843437000018
1 90046           19337.16666667 -.00000178  00000-0 -32628-3 0 00001
2 90046 053.8096 004.9138 0008064 268.9256 048.1962 13.39843478000014
1 90047           19337.16666667 -.00000203  00000-0 -37191-3 0 00001
2 90047 053.8096 004.9138 0008064 268.9339 055.3878 13.39843510000010
1 90048           19337.16666667 -.00000216  00000-0 -39524-3 0 00008
2 90048 053.8096 004.9138 0008064 268.9419 062.5798 13.39843532000015
1 90049           19337.16666667 -.00000215  00000-0 -39504-3 0 00006
2 90049 053.8096 004.9139 0008064 268.9483 069.7733 13.39843541000016
